FENGYUN 3D              
1 43010U 17072A   26187.59837495 -.00000191  00000+0 -68540-4 0  9998
2 43010  99.0142 162.3722 0001972  30.9441 329.1850 14.19742663447745
NOAA 20 (JPSS-1)        
1 43013U 17073A   26187.38506616  .00000063  00000+0  50828-4 0  9993
2 43013  98.7772 126.6773 0001045 131.5855 228.5410 14.19515335447197
GOES 17                 
1 43226U 18022A   26187.55705094 -.00000168  00000+0  00000+0 0  9993
2 43226   0.9833  85.4057 0000624  54.3359 255.8395  1.00272167 30615
SENTINEL-3B             
1 43437U 18039A   26187.19489750  .00000114  00000+0  64969-4 0  9992
2 43437  98.6240 254.4537 0000946 117.9114 242.2162 14.26740326426832
FENGYUN 2H              
1 43491U 18050A   26187.60976234 -.00000115  00000+0  00000+0 0  9992
2 43491   3.0782  78.8521 0001956 123.2380  21.2693  1.00268797 29637
METOP-C                 
1 43689U 18087A   26187.35416118  .00000096  00000+0  63653-4 0  9998
2 43689  98.6634 246.6066 0002195 105.0556 255.0864 14.21517412397554
GEO-KOMPSAT-2A          
1 43823U 18100A   26187.52885368 -.00000329  00000+0  00000+0 0  9992
2 43823   0.0410 152.6302 0002382 305.5025 145.0293  1.00271702 27824
METEOR-M2 2             
1 44387U 19038A   26187.56233103  .00000069  00000+0  49545-4 0  9999
2 44387  98.9158 175.1344 0001215  18.8050 341.3172 14.24371468364053
ARKTIKA-M 1             
1 47719U 21016A   26180.95192977 -.00000281  00000+0  00000+0 0  9994
2 47719  63.2520  55.7907 7292817 269.9910  14.5481  2.00617895 39040
FENGYUN 3E              
1 49008U 21062A   26187.58009223 -.00000130  00000+0 -40375-4 0  9993
2 49008  98.7498 190.7720 0002568  53.8103 306.3310 14.19905048259334
GOES 18                 
1 51850U 22021A   26187.51119709  .00000111  00000+0  00000+0 0  9994
2 51850   0.0186 203.3017 0000514 319.9721 168.2419  1.00271141  6783
NOAA 21 (JPSS-2)        
1 54234U 22150A   26187.34702095  .00000067  00000+0  52425-4 0  9996
2 54234  98.7060 125.8143 0002585 120.0213 240.1220 14.19540084189266
METEOSAT-12 (MTG-I1)    
1 54743U 22170C   26187.57473102  .00000009  00000+0  00000+0 0  9995
2 54743   0.7593  25.8620 0003405  76.6678  28.7511  1.00276487 13175
TIANMU-1 03             
1 55973U 23039A   26187.64224686  .00012682  00000+0  24554-3 0  9999
2 55973  97.5247   2.3811 0003300  48.2133 311.9398 15.47866361183842
TIANMU-1 04             
1 55974U 23039B   26187.62409634  .00013605  00000+0  25764-3 0  9996
2 55974  97.5180   1.5179 0003790  43.1616 316.9931 15.48484374183850
TIANMU-1 05             
1 55975U 23039C   26187.55930993  .00012701  00000+0  24655-3 0  9990
2 55975  97.5226   1.9029 0003602  68.8997 291.2638 15.47788324183814
TIANMU-1 06             
1 55976U 23039D   26187.49946314  .00013359  00000+0  25396-3 0  9991
2 55976  97.5232   2.4960 0003790  62.8908 297.2729 15.48379061183830
FENGYUN 3G              
1 56232U 23055A   26187.60162267  .00016736  00000+0  26461-3 0  9991
2 56232  49.9915 245.9245 0007259  17.9558 342.1664 15.53520074183028
METEOR-M2 3             
1 57166U 23091A   26187.63137856 -.00000011  00000+0  14095-4 0  9998
2 57166  98.6077 242.2109 0005101 109.4845 250.6885 14.24048463157285
TIANMU-1 07             
1 57399U 23101A   26187.59092420  .00005093  00000+0  17767-3 0  9992
2 57399  97.2579 237.8150 0004164  82.2852 277.8861 15.30045783164615
TIANMU-1 08             
1 57400U 23101B   26187.62291323  .00005314  00000+0  18521-3 0  9997
2 57400  97.2569 237.6140 0005282  68.1691 292.0111 15.30050336164617
TIANMU-1 09             
1 57401U 23101C   26187.60589551  .00005471  00000+0  19039-3 0  9998
2 57401  97.2526 237.0033 0004754  84.0572 276.1210 15.30088863164613
TIANMU-1 10             
1 57402U 23101D   26187.57389307  .00005382  00000+0  18747-3 0  9998
2 57402  97.2606 238.0423 0006216  76.9574 283.2360 15.30061439164608
FENGYUN 3F              
1 57490U 23111A   26187.56354666  .00000040  00000+0  39468-4 0  9995
2 57490  98.6829 257.2106 0001426  80.7056 279.4282 14.19942453151611
ARKTIKA-M 2             
1 58584U 23198A   26180.72239164  .00000148  00000+0  00000+0 0  9995
2 58584  63.2199 152.9641 6905877 267.3845  18.7575  2.00610643 18573
TIANMU-1 11             
1 58645U 23205A   26187.58027969  .00004456  00000+0  16979-3 0  9993
2 58645  97.3444 208.8342 0006923 300.9225  59.1333 15.27203893140480
TIANMU-1 12             
1 58646U 23205B   26187.61724929  .00004791  00000+0  18333-3 0  9996
2 58646  97.3434 208.6211 0005458 274.6737  85.3879 15.27034043140474
TIANMU-1 13             
1 58647U 23205C   26187.58512030  .00004676  00000+0  17905-3 0  9997
2 58647  97.3460 208.8663 0005118 250.5083 109.5604 15.27026199140464
TIANMU-1 14             
1 58648U 23205D   26187.56976044  .00004461  00000+0  17070-3 0  9990
2 58648  97.3397 208.0178 0005834 258.5269 101.5315 15.27070160140464
TIANMU-1 19             
1 58660U 23208A   26187.55882547  .00006637  00000+0  21815-3 0  9999
2 58660  97.4517 303.9630 0003831 233.7474 126.3414 15.31882674140291
