OBJECT_NAME,OBJECT_ID,EPOCH,MEAN_MOTION,ECCENTRICITY,INCLINATION,RA_OF_ASC_NODE,ARG_OF_PERICENTER,MEAN_ANOMALY,EPHEMERIS_TYPE,CLASSIFICATION_TYPE,NORAD_CAT_ID,ELEMENT_SET_NO,REV_AT_EPOCH,BSTAR,MEAN_MOTION_DOT,MEAN_MOTION_DDOT
FENGYUN 3D,2017-072A,2026-07-06T14:21:39.595680,14.19742663,.0001972,99.0142,162.3722,30.9441,329.1850,0,U,43010,999,44774,-.68540131E-4,-.191E-5,0
NOAA 20 (JPSS-1),2017-073A,2026-07-06T09:14:29.716224,14.19515335,.00010457,98.7772,126.6773,131.5855,228.5410,0,U,43013,999,44719,.50828469E-4,.63E-6,0
GOES 17,2018-022A,2026-07-06T13:22:09.201216,1.00272167,.00006249,0.9833,85.4057,54.3359,255.8395,0,U,43226,999,3061,0,-.168E-5,0
SENTINEL-3B,2018-039A,2026-07-06T04:40:39.144000,14.26740326,.00009461,98.6240,254.4537,117.9114,242.2162,0,U,43437,999,42683,.64968842E-4,.114E-5,0
FENGYUN 2H,2018-050A,2026-07-06T14:38:03.466176,1.00268797,.00019569,3.0782,78.8521,123.2380,21.2693,0,U,43491,999,2963,0,-.115E-5,0
METOP-C,2018-087A,2026-07-06T08:29:59.525952,14.21517412,.00021957,98.6634,246.6066,105.0556,255.0864,0,U,43689,999,39755,.63653421E-4,.96E-6,0
GEO-KOMPSAT-2A,2018-100A,2026-07-06T12:41:32.957952,1.00271702,.00023829,0.0410,152.6302,305.5025,145.0293,0,U,43823,999,2782,0,-.329E-5,0
METEOR-M2 2,2019-038A,2026-07-06T13:29:45.400992,14.24371468,.00012154,98.9158,175.1344,18.8050,341.3172,0,U,44387,999,36405,.49545477E-4,.69E-6,0
ARKTIKA-M 1,2021-016A,2026-06-29T22:50:46.732128,2.00617895,.72928178,63.2520,55.7907,269.9910,14.5481,0,U,47719,999,3904,0,-.281E-5,0
FENGYUN 3E,2021-062A,2026-07-06T13:55:19.968672,14.19905048,.0002568,98.7498,190.7720,53.8103,306.3310,0,U,49008,999,25933,-.40375426E-4,-.13E-5,0
GOES 18,2022-021A,2026-07-06T12:16:07.428576,1.00271141,.00005144,0.0186,203.3017,319.9721,168.2419,0,U,51850,999,678,0,.111E-5,0
NOAA 21 (JPSS-2),2022-150A,2026-07-06T08:19:42.610080,14.19540084,.00025859,98.7060,125.8143,120.0213,240.1220,0,U,54234,999,18926,.5242513E-4,.67E-6,0
METEOSAT-12 (MTG-I1),2022-170C,2026-07-06T13:47:36.760128,1.00276487,.00034057,0.7593,25.8620,76.6678,28.7511,0,U,54743,999,1317,0,.9E-7,0
TIANMU-1 03,2023-039A,2026-07-06T15:24:50.128704,15.47866361,.00033005,97.5247,2.3811,48.2133,311.9398,0,U,55973,999,18384,.24553768E-3,.12682E-3,0
TIANMU-1 04,2023-039B,2026-07-06T14:58:41.923776,15.48484374,.00037904,97.5180,1.5179,43.1616,316.9931,0,U,55974,999,18385,.25764209E-3,.13605E-3,0
TIANMU-1 05,2023-039C,2026-07-06T13:25:24.377952,15.47788324,.00036021,97.5226,1.9029,68.8997,291.2638,0,U,55975,999,18381,.24655244E-3,.12701E-3,0
TIANMU-1 06,2023-039D,2026-07-06T11:59:13.615296,15.48379061,.00037905,97.5232,2.4960,62.8908,297.2729,0,U,55976,999,18383,.25396207E-3,.13359E-3,0
FENGYUN 3G,2023-055A,2026-07-06T14:26:20.198688,15.53520074,.00072592,49.9915,245.9245,17.9558,342.1664,0,U,56232,999,18302,.26461302E-3,.16736E-3,0
METEOR-M2 3,2023-091A,2026-07-06T15:09:11.107584,14.24048463,.00051017,98.6077,242.2109,109.4845,250.6885,0,U,57166,999,15728,.14095364E-4,-.11E-6,0
TIANMU-1 07,2023-101A,2026-07-06T14:10:55.850880,15.30045783,.00041641,97.2579,237.8150,82.2852,277.8861,0,U,57399,999,16461,.17766861E-3,.5093E-4,0
TIANMU-1 08,2023-101B,2026-07-06T14:56:59.703072,15.30050336,.00052828,97.2569,237.6140,68.1691,292.0111,0,U,57400,999,16461,.1852089E-3,.5314E-4,0
TIANMU-1 09,2023-101C,2026-07-06T14:32:29.372064,15.30088863,.00047544,97.2526,237.0033,84.0572,276.1210,0,U,57401,999,16461,.19039208E-3,.5471E-4,0
TIANMU-1 10,2023-101D,2026-07-06T13:46:24.361248,15.30061439,.00062162,97.2606,238.0423,76.9574,283.2360,0,U,57402,999,16460,.18747293E-3,.5382E-4,0
FENGYUN 3F,2023-111A,2026-07-06T13:31:30.431424,14.19942453,.00014266,98.6829,257.2106,80.7056,279.4282,0,U,57490,999,15161,.39467749E-4,.4E-6,0
ARKTIKA-M 2,2023-198A,2026-06-29T17:20:14.637696,2.00610643,.69058771,63.2199,152.9641,267.3845,18.7575,0,U,58584,999,1857,0,.148E-5,0
TIANMU-1 11,2023-205A,2026-07-06T13:55:36.165216,15.27203893,.00069239,97.3444,208.8342,300.9225,59.1333,0,U,58645,999,14048,.16979155E-3,.4456E-4,0
TIANMU-1 12,2023-205B,2026-07-06T14:48:50.338656,15.27034043,.00054588,97.3434,208.6211,274.6737,85.3879,0,U,58646,999,14047,.18332716E-3,.4791E-4,0
TIANMU-1 13,2023-205C,2026-07-06T14:02:34.393920,15.27026199,.00051181,97.3460,208.8663,250.5083,109.5604,0,U,58647,999,14046,.17904608E-3,.4676E-4,0
TIANMU-1 14,2023-205D,2026-07-06T13:40:27.302016,15.27070160,.00058347,97.3397,208.0178,258.5269,101.5315,0,U,58648,999,14046,.17069921E-3,.4461E-4,0
TIANMU-1 19,2023-208A,2026-07-06T13:24:42.520608,15.31882674,.0003831,97.4517,303.9630,233.7474,126.3414,0,U,58660,999,14029,.21815209E-3,.6637E-4,0
